1 08366U 75100A   20007.46656069 -.00000203  00000-0  00000+0 0  9992
2 08366  10.3053 307.0345 0005103 336.5439 270.2045  1.00276409161615
1 10061U 77048A   20007.24890274 -.00000178  00000-0  00000+0 0  9995
2 10061  11.7277 316.9528 0017657 353.2422 237.8402  0.99401297100127
1 10953U 78062A   20007.22132773 -.00000249  00000-0  00000+0 0  9992
2 10953  11.9677 320.8863 0004558 359.7327 195.6224  0.99364119105219
1 11964U 80074A   20007.34243917 -.00000091  00000-0  00000+0 0  9992
2 11964  12.8399 324.6347 0035344  38.6615 324.9184  0.99227778104289
1 12472U 81049A   20007.30920219 -.00000270  00000-0  00000+0 0  9992
2 12472  13.3469 335.2561 0004597 327.0174 206.5907  1.00293887 99373
1 14050U 83041A   20007.38633469 -.00000251  00000-0  00000+0 0  9995
2 14050  13.7354 340.2982 0002554 357.2995 192.0258  1.00286457192461
1 17561U 87022A   20007.18018000 -.00000050  00000-0  00000+0 0  9991
2 17561  14.8800 356.4523 0008010 349.6272 189.4550  0.99906856103472
1 23051U 94022A   20007.12234248  .00000044  00000-0  00000+0 0  9990
2 23051  12.3896  30.8325 0008350 300.2328 253.9497  0.98902329100841
1 23581U 95025A   20007.45759081 -.00000204  00000-0  00000+0 0  9994
2 23581  11.8785  30.7266 0002065 349.6665 206.8837  0.98801077 89503
1 24786U 97019A   20007.25694778 -.00000004  00000-0  00000+0 0  9994
2 24786  10.4164  36.2541 0027064 191.2686   0.6953  0.99123978 82739
1 26352U 00022A   20007.49719600 -.00000268  00000-0  00000+0 0  9993
2 26352   6.8355  66.1801 0005347 220.2850 153.4414  0.99045764 71696
1 26871U 01031A   20007.49100223 -.00000236  00000-0  00000+0 0  9990
2 26871   7.9558  53.7849 0009945 262.4211  89.8729  0.99138325 67412
1 29155U 06018A   20007.58310052 -.00000270  00000-0  00000+0 0  9999
2 29155   0.2923  92.9927 0009508 173.5118 154.9991  0.99982794 49925
1 35491U 09033A   20007.46646456 -.00000076  00000-0  00000+0 0  9990
2 35491   0.0777 283.3389 0011944 310.3531 296.5558  1.00271611 38567
1 36411U 10008A   20007.54424437  .00000074  00000-0  00000+0 0  9996
2 36411   0.1109 267.8794 0001310 278.6344 347.6076  1.00268796 36078
1 41866U 16071A   20007.52327959 -.00000231  00000-0  00000+0 0  9997
2 41866   0.0656 117.1821 0000693 193.4073 269.1418  1.00271030 11513
1 43226U 18022A   20007.54979866  .00000115  00000-0  00000+0 0  9999
2 43226   0.0476 115.3309 0000616 183.9064 228.0511  1.00272986  6844
